{
  "type": "FeatureCollection",
  "features": [
    {
      "type": "Feature",
      "properties": {
        "norad_id": 31420,
        "name": "FENGYUN 1C DEB",
        "group": "fengyun-1c-debris",
        "lat": 57.42508462570225,
        "lon": 85.30336836734071,
        "alt_km": 846.3454297315184,
        "timestamp": "2025-12-22T11:33:20.721811+00:00",
        "meta_object_name": "FENGYUN 1C DEB",
        "meta_object_id": "1999-025BTG",
        "meta_epoch": "2025-12-21T23:24:18.234720",
        "meta_mean_motion": 14.40847782,
        "meta_eccentricity": 0.0135066,
        "meta_inclination": 97.5587,
        "meta_ra_of_asc_node": 252.8606,
        "meta_arg_of_pericenter": 299.617,
        "meta_mean_anomaly": 77.666,
        "meta_ephemeris_type": 0,
        "meta_classification_type": "U",
        "meta_norad_cat_id": 31420,
        "meta_element_set_no": 999,
        "meta_rev_at_epoch": 65127,
        "meta_bstar": 0.00058843,
        "meta_mean_motion_dot": 2.06e-05,
        "meta_mean_motion_ddot": 0,
        "tle_line1": "1 31420U 99025BTG 25355.97521105  .00002060  00000+0  58843-3 0  9993",
        "tle_line2": "2 31420  97.5587 252.8606 0135066 299.6170  77.6660 14.40847782651275"
      },
      "geometry": {
        "type": "Point",
        "coordinates": [
          85.30336836734071,
          57.42508462570225
        ]
      }
    },
    {
      "type": "Feature",
      "properties": {
        "norad_id": 31422,
        "name": "FENGYUN 1C DEB",
        "group": "fengyun-1c-debris",
        "lat": 17.91290978309252,
        "lon": -9.684458920301585,
        "alt_km": 867.3939920412513,
        "timestamp": "2025-12-22T11:33:20.721823+00:00",
        "meta_object_name": "FENGYUN 1C DEB",
        "meta_object_id": "1999-025BTJ",
        "meta_epoch": "2025-12-21T05:07:59.257056",
        "meta_mean_motion": 14.09632302,
        "meta_eccentricity": 0.00336668,
        "meta_inclination": 98.7601,
        "meta_ra_of_asc_node": 351.9391,
        "meta_arg_of_pericenter": 276.2718,
        "meta_mean_anomaly": 152.4688,
        "meta_ephemeris_type": 0,
        "meta_classification_type": "U",
        "meta_norad_cat_id": 31422,
        "meta_element_set_no": 999,
        "meta_rev_at_epoch": 95781,
        "meta_bstar": 0.00030626331,
        "meta_mean_motion_dot": 4.96e-06,
        "meta_mean_motion_ddot": 0,
        "tle_line1": "1 31422U 99025BTJ 25355.21388029  .00000496  00000+0  30626-3 0  9998",
        "tle_line2": "2 31422  98.7601 351.9391 0033666 276.2718 152.4688 14.09632302957817"
      },
      "geometry": {
        "type": "Point",
        "coordinates": [
          -9.684458920301585,
          17.91290978309252
        ]
      }
    },
    {
      "type": "Feature",
      "properties": {
        "norad_id": 31423,
        "name": "FENGYUN 1C DEB",
        "group": "fengyun-1c-debris",
        "lat": -60.20328481785533,
        "lon": 141.76134238377165,
        "alt_km": 815.8595217303164,
        "timestamp": "2025-12-22T11:33:20.721835+00:00",
        "meta_object_name": "FENGYUN 1C DEB",
        "meta_object_id": "1999-025BTK",
        "meta_epoch": "2025-12-20T09:29:17.071872",
        "meta_mean_motion": 14.22976459,
        "meta_eccentricity": 0.00364823,
        "meta_inclination": 98.5839,
        "meta_ra_of_asc_node": 335.0221,
        "meta_arg_of_pericenter": 171.6183,
        "meta_mean_anomaly": 188.5613,
        "meta_ephemeris_type": 0,
        "meta_classification_type": "U",
        "meta_norad_cat_id": 31423,
        "meta_element_set_no": 999,
        "meta_rev_at_epoch": 97077,
        "meta_bstar": 0.00010584253,
        "meta_mean_motion_dot": 1.97e-06,
        "meta_mean_motion_ddot": 0,
        "tle_line1": "1 31423U 99025BTK 25354.39533648  .00000197  00000+0  10584-3 0  9995",
        "tle_line2": "2 31423  98.5839 335.0221 0036482 171.6183 188.5613 14.22976459970774"
      },
      "geometry": {
        "type": "Point",
        "coordinates": [
          141.76134238377165,
          -60.20328481785533
        ]
      }
    },
    {
      "type": "Feature",
      "properties": {
        "norad_id": 31424,
        "name": "FENGYUN 1C DEB",
        "group": "fengyun-1c-debris",
        "lat": -28.180087880927548,
        "lon": -144.69001422561286,
        "alt_km": 914.8293006840231,
        "timestamp": "2025-12-22T11:33:20.721846+00:00",
        "meta_object_name": "FENGYUN 1C DEB",
        "meta_object_id": "1999-025BTL",
        "meta_epoch": "2025-12-19T21:11:45.819744",
        "meta_mean_motion": 14.08364776,
        "meta_eccentricity": 0.0094457,
        "meta_inclination": 98.4802,
        "meta_ra_of_asc_node": 37.4514,
        "meta_arg_of_pericenter": 85.2675,
        "meta_mean_anomaly": 275.9275,
        "meta_ephemeris_type": 0,
        "meta_classification_type": "U",
        "meta_norad_cat_id": 31424,
        "meta_element_set_no": 999,
        "meta_rev_at_epoch": 63271,
        "meta_bstar": 9.2141e-05,
        "meta_mean_motion_dot": 1.25e-06,
        "meta_mean_motion_ddot": 0,
        "tle_line1": "1 31424U 99025BTL 25353.88316921  .00000125  00000+0  92141-4 0  9993",
        "tle_line2": "2 31424  98.4802  37.4514 0094457  85.2675 275.9275 14.08364776632715"
      },
      "geometry": {
        "type": "Point",
        "coordinates": [
          -144.69001422561286,
          -28.180087880927548
        ]
      }
    },
    {
      "type": "Feature",
      "properties": {
        "norad_id": 31426,
        "name": "FENGYUN 1C DEB",
        "group": "fengyun-1c-debris",
        "lat": 67.3419005214435,
        "lon": -5.436171874298238,
        "alt_km": 759.3580891373731,
        "timestamp": "2025-12-22T11:33:20.721856+00:00",
        "meta_object_name": "FENGYUN 1C DEB",
        "meta_object_id": "1999-025BTN",
        "meta_epoch": "2025-12-21T09:15:14.668416",
        "meta_mean_motion": 13.90136286,
        "meta_eccentricity": 0.03244339,
        "meta_inclination": 98.5796,
        "meta_ra_of_asc_node": 152.3499,
        "meta_arg_of_pericenter": 162.2374,
        "meta_mean_anomaly": 230.0677,
        "meta_ephemeris_type": 0,
        "meta_classification_type": "U",
        "meta_norad_cat_id": 31426,
        "meta_element_set_no": 999,
        "meta_rev_at_epoch": 93693,
        "meta_bstar": 0.0018852182,
        "meta_mean_motion_dot": 3.527e-05,
        "meta_mean_motion_ddot": 0,
        "tle_line1": "1 31426U 99025BTN 25355.38558644  .00003527  00000+0  18852-2 0  9996",
        "tle_line2": "2 31426  98.5796 152.3499 0324433 162.2374 230.0677 13.90136286936933"
      },
      "geometry": {
        "type": "Point",
        "coordinates": [
          -5.436171874298238,
          67.3419005214435
        ]
      }
    },
    {
      "type": "Feature",
      "properties": {
        "norad_id": 31427,
        "name": "FENGYUN 1C DEB",
        "group": "fengyun-1c-debris",
        "lat": -64.94037237658995,
        "lon": 125.00806701034209,
        "alt_km": 691.2449429562021,
        "timestamp": "2025-12-22T11:33:20.721865+00:00",
        "meta_object_name": "FENGYUN 1C DEB",
        "meta_object_id": "1999-025BTP",
        "meta_epoch": "2025-12-18T05:47:54.672864",
        "meta_mean_motion": 14.58782347,
        "meta_eccentricity": 0.00311027,
        "meta_inclination": 98.6704,
        "meta_ra_of_asc_node": 101.5375,
        "meta_arg_of_pericenter": 1.2024,
        "meta_mean_anomaly": 358.9243,
        "meta_ephemeris_type": 0,
        "meta_classification_type": "U",
        "meta_norad_cat_id": 31427,
        "meta_element_set_no": 999,
        "meta_rev_at_epoch": 96961,
        "meta_bstar": 0.0019331308,
        "meta_mean_motion_dot": 9.052e-05,
        "meta_mean_motion_ddot": 0,
        "tle_line1": "1 31427U 99025BTP 25352.24160501  .00009052  00000+0  19331-2 0  9992",
        "tle_line2": "2 31427  98.6704 101.5375 0031102   1.2024 358.9243 14.58782347969615"
      },
      "geometry": {
        "type": "Point",
        "coordinates": [
          125.00806701034209,
          -64.94037237658995
        ]
      }
    },
    {
      "type": "Feature",
      "properties": {
        "norad_id": 31428,
        "name": "FENGYUN 1C DEB",
        "group": "fengyun-1c-debris",
        "lat": 13.787353370264245,
        "lon": 150.73838006080157,
        "alt_km": 717.9346349440484,
        "timestamp": "2025-12-22T11:33:20.721875+00:00",
        "meta_object_name": "FENGYUN 1C DEB",
        "meta_object_id": "1999-025BTQ",
        "meta_epoch": "2025-12-20T20:37:52.432896",
        "meta_mean_motion": 14.42047489,
        "meta_eccentricity": 0.00643336,
        "meta_inclination": 99.0387,
        "meta_ra_of_asc_node": 326.7833,
        "meta_arg_of_pericenter": 129.7478,
        "meta_mean_anomaly": 260.8223,
        "meta_ephemeris_type": 0,
        "meta_classification_type": "U",
        "meta_norad_cat_id": 31428,
        "meta_element_set_no": 999,
        "meta_rev_at_epoch": 97627,
        "meta_bstar": 0.0004567971,
        "meta_mean_motion_dot": 1.488e-05,
        "meta_mean_motion_ddot": 0,
        "tle_line1": "1 31428U 99025BTQ 25354.85963464  .00001488  00000+0  45680-3 0  9993",
        "tle_line2": "2 31428  99.0387 326.7833 0064333 129.7478 260.8223 14.42047489976272"
      },
      "geometry": {
        "type": "Point",
        "coordinates": [
          150.73838006080157,
          13.787353370264245
        ]
      }
    }
  ]
}